[
    {
        "Altitude(m)": 702997.1443218051,
        "Argument of Periapsis(deg)": 0.005695060593313534,
        "Eccentricity": 0.0,
        "Inclination(deg)": 45.0,
        "Latitude(deg)": 4.041501527568331,
        "Longitude(deg)": -16.34175549866845,
        "Mean Anomaly(deg)": 5.766608323740412,
        "RAAN(deg)": 79.99462402927091,
        "Satellite Name": "Constellation 1 352",
        "Satellite Number": 352,
        "Semi-Major Axis(m)": 7083131.272910544,
        "Time(s)": 95
    },
    {
        "Altitude(m)": 702993.4970466216,
        "Argument of Periapsis(deg)": 0.00575500859955894,
        "Eccentricity": 0.0,
        "Inclination(deg)": 45.0,
        "Latitude(deg)": 4.0846131691861896,
        "Longitude(deg)": -16.302786209417274,
        "Mean Anomaly(deg)": 5.827309463990311,
        "RAAN(deg)": 79.99456744010533,
        "Satellite Name": "Constellation 1 352",
        "Satellite Number": 352,
        "Semi-Major Axis(m)": 7083131.272910544,
        "Time(s)": 96
    },
    {
        "Altitude(m)": 702989.8706143091,
        "Argument of Periapsis(deg)": 0.005814956605804345,
        "Eccentricity": 0.0,
        "Inclination(deg)": 45.0,
        "Latitude(deg)": 4.127722506645814,
        "Longitude(deg)": -16.263812098496786,
        "Mean Anomaly(deg)": 5.88801060424021,
        "RAAN(deg)": 79.99451085093976,
        "Satellite Name": "Constellation 1 352",
        "Satellite Number": 352,
        "Semi-Major Axis(m)": 7083131.272910544,
        "Time(s)": 97
    },
    {
        "Altitude(m)": 702986.2650223831,
        "Argument of Periapsis(deg)": 0.00587490461204975,
        "Eccentricity": 0.0,
        "Inclination(deg)": 45.0,
        "Latitude(deg)": 4.170829514568652,
        "Longitude(deg)": -16.224833285182605,
        "Mean Anomaly(deg)": 5.948711744490109,
        "RAAN(deg)": 79.99445426177418,
        "Satellite Name": "Constellation 1 352",
        "Satellite Number": 352,
        "Semi-Major Axis(m)": 7083131.272910544,
        "Time(s)": 98
    },
    {
        "Altitude(m)": 702982.680268274,
        "Argument of Periapsis(deg)": 0.005934852618295156,
        "Eccentricity": 0.0,
        "Inclination(deg)": 45.0,
        "Latitude(deg)": 4.213934167567398,
        "Longitude(deg)": -16.18584972064247,
        "Mean Anomaly(deg)": 6.009412884740009,
        "RAAN(deg)": 79.99439767260861,
        "Satellite Name": "Constellation 1 352",
        "Satellite Number": 352,
        "Semi-Major Axis(m)": 7083131.272910544,
        "Time(s)": 99
    },
    {
        "Altitude(m)": 702979.1163493219,
        "Argument of Periapsis(deg)": 0.005994800624540561,
        "Eccentricity": 0.0,
        "Inclination(deg)": 45.0,
        "Latitude(deg)": 4.257036440245605,
        "Longitude(deg)": -16.146861356033536,
        "Mean Anomaly(deg)": 6.070114024989907,
        "RAAN(deg)": 79.99434108344305,
        "Satellite Name": "Constellation 1 352",
        "Satellite Number": 352,
        "Semi-Major Axis(m)": 7083131.272910544,
        "Time(s)": 100
    },
    {
        "Altitude(m)": 702975.573262763,
        "Argument of Periapsis(deg)": 0.006054748630785968,
        "Eccentricity": 0.0,
        "Inclination(deg)": 45.0,
        "Latitude(deg)": 4.300136307197579,
        "Longitude(deg)": -16.107868142502067,
        "Mean Anomaly(deg)": 6.130815165239807,
        "RAAN(deg)": 79.99428449427747,
        "Satellite Name": "Constellation 1 352",
        "Satellite Number": 352,
        "Semi-Major Axis(m)": 7083131.272910544,
        "Time(s)": 101
    },
    {
        "Altitude(m)": 702972.0510057532,
        "Argument of Periapsis(deg)": 0.006114696637031373,
        "Eccentricity": 0.0,
        "Inclination(deg)": 45.0,
        "Latitude(deg)": 4.343233743008292,
        "Longitude(deg)": -16.068870031183433,
        "Mean Anomaly(deg)": 6.191516305489706,
        "RAAN(deg)": 79.99422790511191,
        "Satellite Name": "Constellation 1 352",
        "Satellite Number": 352,
        "Semi-Major Axis(m)": 7083131.272910544,
        "Time(s)": 102
    },
    {
        "Altitude(m)": 702968.5495753491,
        "Argument of Periapsis(deg)": 0.006174644643276778,
        "Eccentricity": 0.0,
        "Inclination(deg)": 45.0,
        "Latitude(deg)": 4.38632872225331,
        "Longitude(deg)": -16.029866973201862,
        "Mean Anomaly(deg)": 6.252217445739605,
        "RAAN(deg)": 79.99417131594635,
        "Satellite Name": "Constellation 1 352",
        "Satellite Number": 352,
        "Semi-Major Axis(m)": 7083131.272910544,
        "Time(s)": 103
    },
    {
        "Altitude(m)": 702965.0689685177,
        "Argument of Periapsis(deg)": 0.006234592649522184,
        "Eccentricity": 0.0,
        "Inclination(deg)": 45.0,
        "Latitude(deg)": 4.429421219498375,
        "Longitude(deg)": -15.99085908776767,
        "Mean Anomaly(deg)": 6.312918585989491,
        "RAAN(deg)": 79.99411472678077,
        "Satellite Name": "Constellation 1 352",
        "Satellite Number": 352,
        "Semi-Major Axis(m)": 7083131.272910544,
        "Time(s)": 104
    },
    {
        "Altitude(m)": 702961.6091821315,
        "Argument of Periapsis(deg)": 0.00629454065576759,
        "Eccentricity": 0.0,
        "Inclination(deg)": 45.0,
        "Latitude(deg)": 4.472511209300506,
        "Longitude(deg)": -15.951845989788696,
        "Mean Anomaly(deg)": 6.373619726239403,
        "RAAN(deg)": 79.9940581376152,
        "Satellite Name": "Constellation 1 352",
        "Satellite Number": 352,
        "Semi-Major Axis(m)": 7083131.272910544,
        "Time(s)": 105
    },
    {
        "Altitude(m)": 702958.1702129716,
        "Argument of Periapsis(deg)": 0.006354488662012995,
        "Eccentricity": 0.0,
        "Inclination(deg)": 45.0,
        "Latitude(deg)": 4.5155986662061345,
        "Longitude(deg)": -15.91282779845251,
        "Mean Anomaly(deg)": 6.434320866489303,
        "RAAN(deg)": 79.99400154844963,
        "Satellite Name": "Constellation 1 352",
        "Satellite Number": 352,
        "Semi-Major Axis(m)": 7083131.272910544,
        "Time(s)": 106
    },
    {
        "Altitude(m)": 702954.7520577309,
        "Argument of Periapsis(deg)": 0.006414436668258401,
        "Eccentricity": 0.0,
        "Inclination(deg)": 45.0,
        "Latitude(deg)": 4.558683564752202,
        "Longitude(deg)": -15.873804464838269,
        "Mean Anomaly(deg)": 6.495022006739203,
        "RAAN(deg)": 79.99394495928406,
        "Satellite Name": "Constellation 1 352",
        "Satellite Number": 352,
        "Semi-Major Axis(m)": 7083131.272910544,
        "Time(s)": 107
    },
    {
        "Altitude(m)": 702951.3547130022,
        "Argument of Periapsis(deg)": 0.0064743846745038075,
        "Eccentricity": 0.0,
        "Inclination(deg)": 45.0,
        "Latitude(deg)": 4.6017658794657414,
        "Longitude(deg)": -15.834775940013564,
        "Mean Anomaly(deg)": 6.555723146989101,
        "RAAN(deg)": 79.9938883701185,
        "Satellite Name": "Constellation 1 352",
        "Satellite Number": 352,
        "Semi-Major Axis(m)": 7083131.272910544,
        "Time(s)": 108
    },
    {
        "Altitude(m)": 702947.9781752942,
        "Argument of Periapsis(deg)": 0.0065343326807492125,
        "Eccentricity": 0.0,
        "Inclination(deg)": 45.0,
        "Latitude(deg)": 4.644845584863825,
        "Longitude(deg)": -15.795742175034308,
        "Mean Anomaly(deg)": 6.616424287239,
        "RAAN(deg)": 79.99383178095293,
        "Satellite Name": "Constellation 1 352",
        "Satellite Number": 352,
        "Semi-Major Axis(m)": 7083131.272910544,
        "Time(s)": 109
    },
    {
        "Altitude(m)": 702944.6224410181,
        "Argument of Periapsis(deg)": 0.0065942806869946176,
        "Eccentricity": 0.0,
        "Inclination(deg)": 45.0,
        "Latitude(deg)": 4.687922655453446,
        "Longitude(deg)": -15.75670312094466,
        "Mean Anomaly(deg)": 6.6771254274889,
        "RAAN(deg)": 79.99377519178735,
        "Satellite Name": "Constellation 1 352",
        "Satellite Number": 352,
        "Semi-Major Axis(m)": 7083131.272910544,
        "Time(s)": 110
    },
    {
        "Altitude(m)": 702941.2875064941,
        "Argument of Periapsis(deg)": 0.006654228693240024,
        "Eccentricity": 0.0,
        "Inclination(deg)": 45.0,
        "Latitude(deg)": 4.7309970657311275,
        "Longitude(deg)": -15.717658896873893,
        "Mean Anomaly(deg)": 6.737826567738798,
        "RAAN(deg)": 79.99371860262178,
        "Satellite Name": "Constellation 1 352",
        "Satellite Number": 352,
        "Semi-Major Axis(m)": 7083131.272910544,
        "Time(s)": 111
    },
    {
        "Altitude(m)": 702937.9733679489,
        "Argument of Periapsis(deg)": 0.006714176699485429,
        "Eccentricity": 0.0,
        "Inclination(deg)": 45.0,
        "Latitude(deg)": 4.774068790184024,
        "Longitude(deg)": -15.678609117648367,
        "Mean Anomaly(deg)": 6.798527707988699,
        "RAAN(deg)": 79.99366201345622,
        "Satellite Name": "Constellation 1 352",
        "Satellite Number": 352,
        "Semi-Major Axis(m)": 7083131.272910544,
        "Time(s)": 112
    },
    {
        "Altitude(m)": 702934.6800215293,
        "Argument of Periapsis(deg)": 0.006774124705730835,
        "Eccentricity": 0.0,
        "Inclination(deg)": 45.0,
        "Latitude(deg)": 4.817137803288039,
        "Longitude(deg)": -15.639553902373278,
        "Mean Anomaly(deg)": 6.859228848238585,
        "RAAN(deg)": 79.99360542429064,
        "Satellite Name": "Constellation 1 352",
        "Satellite Number": 352,
        "Semi-Major Axis(m)": 7083131.272910544,
        "Time(s)": 113
    }
]